[{"OBJECT_NAME":"HAWK-7B","OBJECT_ID":"2023-054R","EPOCH":"2026-03-09T16:32:12.682752","MEAN_MOTION":15.26206341,"ECCENTRICITY":0.00036614,"INCLINATION":97.2859,"RA_OF_ASC_NODE":316.7839,"ARG_OF_PERICENTER":61.5878,"MEAN_ANOMALY":298.573,"EPHEMERIS_TYPE":0,"CLASSIFICATION_TYPE":"U","NORAD_CAT_ID":56193,"ELEMENT_SET_NO":999,"REV_AT_EPOCH":16184,"BSTAR":0.00031010844,"MEAN_MOTION_DOT":7.955e-5,"MEAN_MOTION_DDOT":0},{"OBJECT_NAME":"STARLINK-31547","OBJECT_ID":"2024-060S","EPOCH":"2026-03-09T13:19:48.616320","MEAN_MOTION":15.2757097,"ECCENTRICITY":0.00011919,"INCLINATION":43.0032,"RA_OF_ASC_NODE":249.2555,"ARG_OF_PERICENTER":266.1269,"MEAN_ANOMALY":93.9446,"EPHEMERIS_TYPE":0,"CLASSIFICATION_TYPE":"U","NORAD_CAT_ID":59364,"ELEMENT_SET_NO":999,"REV_AT_EPOCH":11017,"BSTAR":3.831808e-6,"MEAN_MOTION_DOT":-1.57e-6,"MEAN_MOTION_DDOT":0}]
